CZ-2C R/B               
1 54039U 22132E   26041.50487424  .00033050  00000+0  41445-3 0  9999
2 54039  97.2963  44.0511 0018584 182.6775 177.4385 15.59472190186133
GSLV R/B                
1 54149U 22138AN  26041.44172909  .00004204  00000+0  36588-3 0  9990
2 54149  87.3861 175.4794 0019422 248.9396 110.9759 14.96564357179856
XRISM                   
1 57800U 23137A   26041.23197864  .00006105  00000+0  34924-3 0  9995
2 57800  31.0019 101.2074 0008024 125.6508 234.4878 15.11157846133633
ACS3                    
1 59588U 24077B   26041.41243929  .00021499  00000+0  17735-1 0  9990
2 59588  97.2207 348.6572 0045748 160.8242 199.4656 13.88480604 90416
SZ-21 MODULE            
1 66515U 25246C   26041.29426735  .00034158  00000+0  32044-3 0  9999
2 66515  41.4767  11.7270 0002700 289.3019  70.7530 15.66465298 13775
