CCSDS_OMM_VERS = 2.0
CREATION_DATE  = 
ORIGINATOR     = 

OBJECT_NAME    = CZ-2C R/B
OBJECT_ID      = 2022-132E
CENTER_NAME    = EARTH
REF_FRAME      = TEME
TIME_SYSTEM    = UTC
MEAN_ELEMENT_THEORY = SGP/SGP4

EPOCH          = 2026-02-10T12:07:01.134336
MEAN_MOTION    = 15.59472190
ECCENTRICITY   = .0018584
INCLINATION    = 97.2963
RA_OF_ASC_NODE = 44.0511
ARG_OF_PERICENTER = 182.6775
MEAN_ANOMALY   = 177.4385

EPHEMERIS_TYPE = 0
CLASSIFICATION_TYPE = U
NORAD_CAT_ID   = 54039
ELEMENT_SET_NO = 999
REV_AT_EPOCH   = 18613
BSTAR          = .41445E-3
MEAN_MOTION_DOT = .3305E-3
MEAN_MOTION_DDOT = 0

CCSDS_OMM_VERS = 2.0
CREATION_DATE  = 
ORIGINATOR     = 

OBJECT_NAME    = GSLV R/B
OBJECT_ID      = 2022-138AN
CENTER_NAME    = EARTH
REF_FRAME      = TEME
TIME_SYSTEM    = UTC
MEAN_ELEMENT_THEORY = SGP/SGP4

EPOCH          = 2026-02-10T10:36:05.393376
MEAN_MOTION    = 14.96564357
ECCENTRICITY   = .0019422
INCLINATION    = 87.3861
RA_OF_ASC_NODE = 175.4794
ARG_OF_PERICENTER = 248.9396
MEAN_ANOMALY   = 110.9759

EPHEMERIS_TYPE = 0
CLASSIFICATION_TYPE = U
NORAD_CAT_ID   = 54149
ELEMENT_SET_NO = 999
REV_AT_EPOCH   = 17985
BSTAR          = .36588E-3
MEAN_MOTION_DOT = .4204E-4
MEAN_MOTION_DDOT = 0

CCSDS_OMM_VERS = 2.0
CREATION_DATE  = 
ORIGINATOR     = 

OBJECT_NAME    = XRISM
OBJECT_ID      = 2023-137A
CENTER_NAME    = EARTH
REF_FRAME      = TEME
TIME_SYSTEM    = UTC
MEAN_ELEMENT_THEORY = SGP/SGP4

EPOCH          = 2026-02-10T05:34:02.954496
MEAN_MOTION    = 15.11157846
ECCENTRICITY   = .0008024
INCLINATION    = 31.0019
RA_OF_ASC_NODE = 101.2074
ARG_OF_PERICENTER = 125.6508
MEAN_ANOMALY   = 234.4878

EPHEMERIS_TYPE = 0
CLASSIFICATION_TYPE = U
NORAD_CAT_ID   = 57800
ELEMENT_SET_NO = 999
REV_AT_EPOCH   = 13363
BSTAR          = .34924E-3
MEAN_MOTION_DOT = .6105E-4
MEAN_MOTION_DDOT = 0

CCSDS_OMM_VERS = 2.0
CREATION_DATE  = 
ORIGINATOR     = 

OBJECT_NAME    = ACS3
OBJECT_ID      = 2024-077B
CENTER_NAME    = EARTH
REF_FRAME      = TEME
TIME_SYSTEM    = UTC
MEAN_ELEMENT_THEORY = SGP/SGP4

EPOCH          = 2026-02-10T09:53:54.754656
MEAN_MOTION    = 13.88480604
ECCENTRICITY   = .0045748
INCLINATION    = 97.2207
RA_OF_ASC_NODE = 348.6572
ARG_OF_PERICENTER = 160.8242
MEAN_ANOMALY   = 199.4656

EPHEMERIS_TYPE = 0
CLASSIFICATION_TYPE = U
NORAD_CAT_ID   = 59588
ELEMENT_SET_NO = 999
REV_AT_EPOCH   = 9041
BSTAR          = .17735E-1
MEAN_MOTION_DOT = .21499E-3
MEAN_MOTION_DDOT = 0

CCSDS_OMM_VERS = 2.0
CREATION_DATE  = 
ORIGINATOR     = 

OBJECT_NAME    = SZ-21 MODULE
OBJECT_ID      = 2025-246C
CENTER_NAME    = EARTH
REF_FRAME      = TEME
TIME_SYSTEM    = UTC
MEAN_ELEMENT_THEORY = SGP/SGP4

EPOCH          = 2026-02-10T07:03:44.699040
MEAN_MOTION    = 15.66465298
ECCENTRICITY   = .00027
INCLINATION    = 41.4767
RA_OF_ASC_NODE = 11.7270
ARG_OF_PERICENTER = 289.3019
MEAN_ANOMALY   = 70.7530

EPHEMERIS_TYPE = 0
CLASSIFICATION_TYPE = U
NORAD_CAT_ID   = 66515
ELEMENT_SET_NO = 999
REV_AT_EPOCH   = 1377
BSTAR          = .32044E-3
MEAN_MOTION_DOT = .34158E-3
MEAN_MOTION_DDOT = 0

